#dP2023 11 23 12  0  0.00000000      96 __u+U IGS20 EXT  IAC
## 2289 388800.00000000   900.00000000 60271 0.5000000000000
+  118   C06C07C08C09C10C11C12C13C14C16C19C20C21C22C23C24C25
+        C26C27C28C29C30C32C33C34C35C36C37C38C39C40C41C42C43
+        C44C45C46E02E03E04E05E07E08E09E10E11E12E13E15E19E21
+        E24E25E26E27E30E31E33E34E36G01G02G03G04G05G06G07G08
+        G09G10G11G12G13G14G15G16G17G18G19G20G21G22G23G24G25
+        G26G27G28G29G30G31G32J02J03J04R01R02R03R04R05R07R08
+        R09R11R12R13R14R15R16R17R18R19R20R21R22R24R25R26  0
++         9 10 10  9 10  9  8 11  8  9  9  8  9 10  9  9  8
++        10  9  8  8  8  8  9  9  9  9  8  9 10 11  8  9  8
++         8  9  9  8  7  8  8  7  8  7  7  8  7  9  9  7  7
++         7  7  8  7  8  7  7  8  8  8  7  7  7  7  7  7  7
++         6  7  7  8  7  9  7  8  8  6  8  8  7  8  7  7  7
++         8  8  8  8  7  7  8 10 10  9  8  8  8  8  7  8  8
++         9  8  9  8  9  7  9  8  9  7  9  7  8  7  8  9  0
%c M  cc GPS ccc cccc cccc cccc cccc ccccc ccccc ccccc ccccc
%c cc cc ccc ccc cccc cccc cccc cccc ccccc ccccc ccccc ccccc
%f  0.0000000  0.000000000  0.00000000000  0.000000000000000
%f  0.0000000  0.000000000  0.00000000000  0.000000000000000
%i    0    0    0    0      0      0      0      0         0
%i    0    0    0    0      0      0      0      0         0
/* IAC                                ULTRA-RAPID PREDICTION
/* S/V CLOCKS ARE ALIGNED TO GNSS TIME                      
/* G:C1WC2W R:C1PC2P E:C1XC5X C:C2IC6I J:C1CC2S             
/* PCV:IGS20_2287 OL/AL:FES2004  NONE     YN ORB:CoN CLK:CoN
*  2023 11 24 11 30  0.00000000
PC06 -14868.583563  38968.122541   5001.992269     38.151204
PC07  -2823.878187  32019.686040  27464.834809   -368.669504
PC08 -14526.308336  20500.179975 -33928.325072    221.722627
PC09  -8321.484406  38268.792877  15246.997139   -130.246110
PC10   5808.662234  35357.041066  22962.821549    -28.650148
PC11  -7410.211248 -21053.067931  16816.784327    272.228887
PC12   4819.097475 -27481.998756    -50.105396    848.057673
PC13  -7581.536609  22316.657338 -34858.410444    386.965575
PC14 -18529.927903 -19942.727709   6027.411463    847.115145
PC16 -16698.389534  38478.623836   2203.585197   -191.592410
PC19  23020.124485  15438.694334   3322.767697   -963.667451
PC20  12608.106469  21263.835575 -12964.695938     88.809251
PC21   6468.765597 -14662.006238  22851.886303   -970.017278
PC22  20788.902857    449.734507  18610.397105   -212.736443
PC23 -26650.431380   6918.139934  -4578.343435   -815.478777
PC24   -942.087592 -16867.145113 -22226.234388    627.503323
PC25 -20112.733695  -5929.031460 -18438.326831    262.850662
PC26  17136.561891 -17562.224334 -13276.511313   -210.711756
PC27  -9881.481410  24712.068855   8364.361082    232.650230
PC28 -16043.347085  10497.140675  20288.392023    175.703839
PC29  13456.668197  12302.230710 -21126.254854    205.605572
PC30   2498.543145  26590.335170  -8060.710104     -8.985099
PC32  -6451.342839  14652.481795 -22848.417618   -537.097564
PC33 -23074.107888 -15359.680417  -3189.432467   -943.559505
PC34  -3469.618974 -26065.035650   9366.039147    310.319154
PC35  15694.305492 -11198.755428 -20193.108595    495.787025
PC36  19273.679171   7038.171822  18924.698106   -120.894478
PC37 -18146.035719  16992.968302  12712.660010   -898.322635
PC38 -22232.861606  21681.269015 -28577.918403    119.751277
PC39 -17169.886713  38262.834014  -2812.055710     -5.796598
PC40  -6003.714297  27788.502310  31254.611508    -45.223508
PC41 -21177.696156  -1044.308354 -18093.545664   -871.655139
PC42 -11224.826595 -21230.740125  14233.549725   -493.096994
PC43 -13178.955163 -13290.949677  20699.121702     49.565934
PC44   9107.441461 -24981.911507  -8523.619501    302.470616
PC45  26616.540885  -7287.511699   4038.950241    -49.030677
PC46   2031.442171  16416.356462  22470.356592   -102.247585
PE02 -29165.559579  -4729.228290   1963.959753     81.081319
PE03 -18547.678316  -6356.976310 -22183.268825    -75.588089
PE04  11580.352924 -15232.408441  22584.488340   -264.755800
PE05 -14702.962183 -24097.206776  -8916.497603   4693.986677
PE07   1901.684442  27775.439983 -10061.841685    -89.491107
PE08 -11775.442631  14643.980725 -22878.600348   -181.883521
PE09  -1884.505522 -27710.620864  10217.468455   -239.041058
PE10  16565.639384 -23952.432898   5262.652404   -581.273125
PE11   8553.598464 -24138.676610  14846.321824   3228.686781
PE12  21328.639306 -20126.710385  -4059.283231   -790.381818
PE13  -9173.712419  24245.832324 -14279.147631    -19.611999
PE15 -21465.350019  19861.416844   4590.572705    -71.159445
PE19  18511.676179   9132.630291  21212.104436  -1150.562602
PE21  20580.589045  14904.823616  15175.116343   -565.661249
PE24   1005.851778 -16931.572639 -24274.606144   -449.101481
PE25 -20280.638635 -15038.775540 -15454.214992     -2.956680
PE26   8974.991475  13954.534498 -24503.031221    290.197008
PE27   -404.121980  16958.203716  24258.271278   -207.731311
PE30 -21210.515206   8757.742859  18697.594021   -687.818981
PE31  20885.784025  -8996.765078 -18937.107363    -10.546765
PE33  20772.206210  -3340.785544 -20807.246160      2.965840
PE34 -21009.985546   3967.374447  20478.161670    -79.687925
PE36  -8296.960174 -14385.623481  24511.621707   -148.429660
PG01 -13578.371066  21582.453639  -7132.899917    163.301311
PG02 -16330.327664  20800.669908    851.190522   -524.728993
PG03  -8553.433521  12998.516165 -21652.903686      7.325648
PG04  -2892.906989  22757.547148 -13262.762515    221.547528
PG05  21007.731526  -6877.698145  14614.953236   -151.587774
PG06  16568.155428   1913.509799 -20626.636123    497.364687
PG07   1792.733827  18599.700641  19171.070178      5.215571
PG08  -8457.268810  16123.487723  19112.047169   -153.637919
PG09   6432.671897  25490.364924  -3651.559689      6.497705
PG10 -22432.767203 -11099.713664   9563.633548    -62.631103
PG11  21249.891595  -8382.440569 -13483.168789   -473.471440
PG12  10764.673206 -12280.810066 -21212.372267   -450.390775
PG13  13930.866095  -6001.723662  21581.303459    598.667327
PG14  19613.837686  13457.544934  12020.395743    252.197591
PG15   6394.196514 -17489.598640  18369.787485    100.272482
PG16 -24640.822745     36.250392  10171.991649   -416.454488
PG17  12661.867125  20756.969317 -10092.236858    722.900885
PG18  -2341.527692 -17390.966992  19893.174177   -488.065658
PG19  15196.706739  13510.321053 -17461.691221    403.273547
PG20  26266.284683  -1336.621547   2958.048452    400.025521
PG21 -17581.561473  18874.196998   4157.584463    143.422096
PG22  23228.534112  11300.871676   5927.647336     78.110079
PG23 -11932.068341 -14843.123688  18605.811087    104.304826
PG24  14815.848614 -21746.599528  -1255.247093   -378.580359
PG25  -3441.266981 -16048.417805 -21253.308181    478.750050
PG26 -26566.827049  -3193.717668    293.925908    214.393716
PG27 -15115.761995   1885.722851  21528.993383    -74.263353
PG28 -15811.594306  -3905.838168 -21007.766383    -53.495277
PG29  -3713.422696 -25946.369072  -3985.453774   -610.139944
PG30  11118.684307  11280.291927  21434.559355   -464.856910
PG31 -20285.307797   4060.082511 -17087.493202   -226.028634
PG32 -15530.120906 -17182.968461 -13000.051845   -589.330825
PJ02 -28687.619055  22023.004201  26784.548777     -0.278811
PJ03 -31859.158180  26638.764232  12323.262504     -9.372422
PJ04 -23579.782595  21512.679280 -22459.546453     72.899148
PR01  -2527.554531  12721.870611 -21968.906264     70.568581
PR02  11035.793944  20432.336041 -10430.854412    -22.324887
PR03  18425.487097  16159.958946   6991.600449     89.623288
PR04  15253.970419   3430.319687  20171.419453    212.411885
PR05   4055.618636 -11339.176610  22496.967132    122.774640
PR07 -18510.794410 -15811.489935  -7679.699341     69.851227
PR08 -15285.527758  -3166.572171 -20132.992796    -73.393484
PR09  -2927.171229 -10935.588020 -22841.337402    154.975875
PR11 -25051.235267   4527.701417  -1477.068027   -215.562145
PR12 -15923.373057  11261.140804  16472.040587     33.759076
PR13    334.525614  11177.011971  22909.748694    -41.642822
PR14  19365.762197   3958.757865  16142.038351     25.601262
PR15  25019.361282  -4978.438490     75.916706     84.524508
PR16  16162.778632 -11191.377283 -16266.158071     20.927455
PR17   7808.777022   8889.637404 -22587.778325     37.705228
PR18  12840.046145  -8503.753992 -20325.951992    113.545686
PR19  12433.092674 -20315.207830  -9112.692186   -255.827994
PR20   3340.870641 -22438.572881  11715.056531   -103.999508
PR21  -8007.685693  -8195.147363  22793.714269    -55.835782
PR22 -13556.776537   8904.580904  19715.496553     95.051163
PR24  -1917.882441  22392.528305 -12060.096329    -33.364924
PR25  -7758.575862  -9231.627678  22485.064412     -3.991144
PR26 -15573.817773  -3578.801757 -19859.969950    -15.321486
EOF
